COSMOS 2419 (714)       
1 28915U 05050A   16254.87145403  .00000042  00000-0  00000+0 0  9990
2 28915  65.3601  75.2715 0014916 359.5771 354.7087  2.13106486 83379
COSMOS 2425 (716)       
1 29670U 06062A   16254.83306112 -.00000014  00000-0  10000-3 0  9990
2 29670  65.5936 314.2768 0019923 340.8295  39.8932  2.13104933 75581
COSMOS 2426 (717)       
1 29671U 06062B   16254.90006421 -.00000013  00000-0  10000-3 0  9998
2 29671  65.6112 314.3583 0018688 169.9670 122.4456  2.13102943 75588
COSMOS 2424 (715)       
1 29672U 06062C   16254.39954351 -.00000017  00000-0  10000-3 0  9990
2 29672  65.5960 314.3005 0018099 168.8931 275.6714  2.13102328 75576
COSMOS 2433 (720)       
1 32275U 07052A   16254.59983604  .00000040  00000-0  10000-3 0  9993
2 32275  65.3749  75.0539 0000791 198.5018 195.3841  2.13104753 69094
COSMOS 2432 (719)       
1 32276U 07052B   16254.57102398  .00000040  00000-0  10000-3 0  9995
2 32276  65.3882  75.1209 0010459 347.4488 337.9709  2.13104128 69088
COSMOS 2434 (721)       
1 32393U 07065A   16254.73201038 -.00000014  00000-0  00000-0 0  9996
2 32393  65.2115 313.5615 0004162 141.0696 245.6332  2.13102905 67805
COSMOS 2436 (723)       
1 32395U 07065C   16254.67781124 -.00000014  00000-0  10000-3 0  9994
2 32395  65.2242 313.6083 0015280 348.4429  88.7014  2.13102909 67737
COSMOS 2443 (725)       
1 33379U 08046B   16254.89304126  .00000042  00000-0  10000-3 0  9994
2 33379  65.3074  74.4508 0017111 179.6877 343.1325  2.13101102 61960
COSMOS 2456 (730)       
1 36111U 09070A   16254.63412031  .00000012  00000-0  00000-0 0  9999
2 36111  64.1821 193.1383 0005677 302.3078 179.2334  2.13102989 52463
COSMOS 2457 (733)       
1 36112U 09070B   16254.45686446  .00000013  00000-0  00000+0 0  9993
2 36112  64.1645 193.0703 0006545 182.0735 293.3397  2.13101709 52467
COSMOS 2458 (734)       
1 36113U 09070C   16254.52365878  .00000012  00000-0  10000-3 0  9999
2 36113  64.1697 193.0741 0001929 307.9356 266.3411  2.13101893 52466
COSMOS 2459 (731)       
1 36400U 10007A   16254.64714113  .00000040  00000-0  10000-3 0  9994
2 36400  65.2864  74.1929 0027088 357.6229 297.1777  2.13102416 50811
COSMOS 2461 (735)       
1 36401U 10007B   16254.81303363  .00000041  00000-0  10000-3 0  9996
2 36401  65.2780  74.1667 0008454  78.5978 254.0616  2.13102312 50813
COSMOS 2460 (732)       
1 36402U 10007C   16254.75883694  .00000040  00000-0  10000-3 0  9999
2 36402  65.2687  74.1447 0002321 101.4560 231.3269  2.13101827 50818
COSMOS 2465 (737)       
1 37138U 10041B   16254.71854647 -.00000015  00000-0  00000-0 0  9995
2 37138  64.8112 313.6922 0036983 173.4264 246.0278  2.13103389 46894
COSMOS 2464 (736)       
1 37139U 10041C   16254.53121684 -.00000016  00000-0  00000+0 0  9994
2 37139  64.8176 313.6959 0020571  10.1998  90.1607  2.13102640 46895
COSMOS 2471 (701K)      
1 37372U 11009A   16254.89337235  .00000041  00000-0  00000-0 0  9996
2 37372  65.2644  74.0886 0006748 223.2556 345.6093  2.13102739 43098
COSMOS 2474 (742)       
1 37829U 11055A   16255.21784962  .00000010  00000-0  00000+0 0  9999
2 37829  64.5059 193.5676 0009860 253.2877 177.1062  2.13101957 38479
COSMOS 2476 (744)       
1 37867U 11064A   16254.38980462  .00000014  00000-0  00000-0 0  9996
2 37867  64.4861 193.6734 0018865 247.6060 313.4054  2.13102006 37801
COSMOS 2477 (745)       
1 37868U 11064B   16255.44676102  .00000009  00000-0  00000+0 0  9991
2 37868  64.4955 193.6796 0016782 248.8630 222.2772  2.13101941 37784
COSMOS 2475 (743)       
1 37869U 11064C   16255.24755682  .00000010  00000-0  00000+0 0  9993
2 37869  64.5024 193.6753 0022021 273.4822   1.0341  2.13102249 37783
COSMOS 2485 (747)       
1 39155U 13019A   16254.72181383  .00000013  00000-0  00000+0 0  9991
2 39155  64.6563 193.6313 0019038 242.4656 258.3620  2.13102107 26282
COSMOS 2492 (754)       
1 39620U 14012A   16254.46476848  .00000038  00000-0  10000-3 0  9998
2 39620  65.1597  74.1309 0013576 340.0066 357.0944  2.13103630 19225
COSMOS 2500 (755)       
1 40001U 14032A   16254.63116659  .00000039  00000-0  00000-0 0  9992
2 40001  65.0995  74.1426 0005857 183.7735 144.5884  2.13102892 17442
COSMOS 2501 (702K)      
1 40315U 14075A   16254.89629031 -.00000017  00000-0  00000-0 0  9995
2 40315  64.5817 315.1141 0018997 232.3757 100.2318  2.13101668 13855
COSMOS 2514 (751)       
1 41330U 16008A   16254.68559593  .00000039  00000-0  00000+0 0  9995
2 41330  64.8983  74.3553 0008375 201.5266 347.8438  2.13103456  4616
COSMOS 2516 (753)       
1 41554U 16032A   16254.60137881 -.00000018  00000-0  00000+0 0  9992
2 41554  64.7641 314.8206 0013512 221.7922 157.2602  2.13101525  2229
